MONOLITH                
1 49052U 21068A   26068.54548855  .00008348  00000+0  53656-3 0  9993
2 49052  37.0220 141.2957 0002679 131.6464 228.4511 15.08010119252226
STARLINK-4190           
1 53001U 22076R   26068.33978810  .00000093  00000+0  23948-4 0  9998
2 53001  53.2160  95.6918 0001066  72.4522 287.6587 15.08837005202791
